NORAD_CAT_ID,OBJECT_NAME,OBJECT_TYPE,EPOCH,MEAN_MOTION,ECCENTRICITY,INCLINATION,RA_OF_ASC_NODE,ARG_OF_PERICENTER,MEAN_ANOMALY,BSTAR,MEAN_MOTION_DOT,MEAN_MOTION_DDOT,TLE_LINE0,TLE_LINE1,TLE_LINE2,SEMIMAJOR_AXIS,PERIOD,APOGEE,PERIGEE,DECAYED
55280.0,STARLINK-5331,PAYLOAD,2023-06-18 20:50:45,14.98332801,0.0003055,70.0004,32.6584,268.5263,91.5546,-5.4022e-05,-7.38e-06,0.0,0 STARLINK-5331,1 55280U 23010M   23169.86858668 -.00000738  00000-0 -54022-4 0  9999,2 55280  70.0004  32.6584 0003055 268.5263  91.5546 14.98332801 23763,6950.184,96.107,574.173,569.926,0.0
55280.0,STARLINK-5331,PAYLOAD,2023-06-19 08:03:41,14.98336757,0.000319,70.0002,31.4794,270.6645,89.4149,-2.3693e-05,-3.76e-06,0.0,0 STARLINK-5331,1 55280U 23010M   23170.33590223 -.00000376  00000-0 -23693-4 0  9991,2 55280  70.0002  31.4794 0003190 270.6645  89.4149 14.98336757 23836,6950.172,96.107,574.254,569.82,0.0
55280.0,STARLINK-5331,PAYLOAD,2023-06-19 20:52:46,14.98329852,0.0003249,70.0,30.1324,270.1693,89.9094,0.00018779,2.148e-05,0.0,0 STARLINK-5331,1 55280U 23010M   23170.86998080  .00002148  00000-0  18779-3 0  9997,2 55280  70.0000  30.1324 0003249 270.1693  89.9094 14.98329852 23913,6950.193,96.107,574.316,569.8,0.0
55280.0,STARLINK-5331,PAYLOAD,2023-06-20 00:05:02,14.98332298,0.0003124,70.0002,29.7961,270.0596,90.0205,0.00020795,2.389e-05,0.0,0 STARLINK-5331,1 55280U 23010M   23171.00349880  .00002389  00000-0  20795-3 0  9990,2 55280  70.0002  29.7961 0003124 270.0596  90.0205 14.98332298 23622,6950.186,96.107,574.222,569.88,0.0
55280.0,STARLINK-5331,PAYLOAD,2023-06-20 08:05:43,14.98331365,0.0003105,70.0007,28.9553,266.516,93.5644,3.4999e-05,3.25e-06,0.0,0 STARLINK-5331,1 55280U 23010M   23171.33730344  .00000325  00000-0  34999-4 0  9995,2 55280  70.0007  28.9553 0003105 266.5160  93.5644 14.98331365 23989,6950.189,96.107,574.212,569.896,0.0
55280.0,STARLINK-5331,PAYLOAD,2023-06-20 17:42:31,14.9832883,0.0003128,70.0006,27.9446,269.4426,90.6374,9.9122e-06,2.5e-07,0.0,0 STARLINK-5331,1 55280U 23010M   23171.73786602  .00000025  00000-0  99122-5 0  9994,2 55280  70.0006  27.9446 0003128 269.4426  90.6374 14.98328830 23734,6950.197,96.107,574.236,569.887,0.0
55280.0,STARLINK-5331,PAYLOAD,2023-06-20 20:54:47,14.98329603,0.0003078,70.0006,27.6079,268.4654,91.6152,-4.9263e-06,-1.52e-06,0.0,0 STARLINK-5331,1 55280U 23010M   23171.87138591 -.00000152  00000-0 -49263-5 0  9991,2 55280  70.0006  27.6079 0003078 268.4654  91.6152 14.98329603 24060,6950.194,96.107,574.198,569.92,0.0
55280.0,STARLINK-5331,PAYLOAD,2023-06-21 00:07:03,14.98330301,0.0003019,70.0007,27.2711,267.936,92.1453,6.6338e-06,-1.4e-07,0.0,0 STARLINK-5331,1 55280U 23010M   23172.00490501 -.00000014  00000-0  66338-5 0  9997,2 55280  70.0007  27.2711 0003019 267.9360  92.1453 14.98330301 24082,6950.192,96.107,574.155,569.959,0.0
55280.0,STARLINK-5331,PAYLOAD,2023-06-21 19:20:40,14.98333437,0.0003027,70.0008,25.2522,269.8762,90.205,-7.1794e-05,-9.5e-06,0.0,0 STARLINK-5331,1 55280U 23010M   23172.80602362 -.00000950  00000-0 -71794-4 0  9996,2 55280  70.0008  25.2522 0003027 269.8762  90.2050 14.98333437 23890,6950.182,96.107,574.151,569.943,0.0
55280.0,STARLINK-5331,PAYLOAD,2023-06-21 20:56:48,14.98334041,0.0002992,70.0007,25.0832,268.3105,91.7711,-5.4508e-05,-7.43e-06,0.0,0 STARLINK-5331,1 55280U 23010M   23172.87278243 -.00000743  00000-0 -54508-4 0  9994,2 55280  70.0007  25.0832 0002992 268.3105  91.7711 14.98334041 24215,6950.18,96.107,574.125,569.966,0.0
55280.0,STARLINK-5331,PAYLOAD,2023-06-22 19:22:41,14.98329164,0.0003111,70.0006,22.727,268.1461,91.9342,2.4749e-05,2.02e-06,0.0,0 STARLINK-5331,1 55280U 23010M   23173.80742234  .00000202  00000-0  24749-4 0  9996,2 55280  70.0006  22.7270 0003111 268.1461  91.9342 14.98329164 24044,6950.195,96.107,574.223,569.898,0.0
55280.0,STARLINK-5331,PAYLOAD,2023-06-24 00:13:06,14.98332066,0.0003038,70.0005,19.6968,268.7794,91.3017,4.4976e-05,4.44e-06,0.0,0 STARLINK-5331,1 55280U 23010M   23175.00909908  .00000444  00000-0  44976-4 0  9995,2 55280  70.0005  19.6968 0003038 268.7794  91.3017 14.98332066 24223,6950.187,96.107,574.163,569.94,0.0
55280.0,STARLINK-5331,PAYLOAD,2023-06-25 00:15:07,14.98330088,0.0003066,70.0007,17.1719,268.5678,91.5129,3.6226e-05,3.39e-06,0.0,0 STARLINK-5331,1 55280U 23010M   23176.01049988  .00000339  00000-0  36226-4 0  9992,2 55280  70.0007  17.1719 0003066 268.5678  91.5129 14.98330088 24376,6950.193,96.107,574.189,569.927,0.0
55280.0,STARLINK-5331,PAYLOAD,2023-06-26 16:18:29,14.98326034,0.0003072,70.0005,12.9633,268.9775,91.1032,5.7137e-07,-8.6e-07,0.0,0 STARLINK-5331,1 55280U 23010M   23177.67950321 -.00000086  00000-0  57137-6 0  9993,2 55280  70.0005  12.9633 0003072 268.9775  91.1032 14.98326034 24624,6950.205,96.107,574.205,569.935,0.0
55280.0,STARLINK-5331,PAYLOAD,2023-06-27 19:32:45,14.98331759,0.0003178,70.0006,10.1019,270.4711,89.6084,4.9691e-05,5e-06,0.0,0 STARLINK-5331,1 55280U 23010M   23178.81441836  .00000500  00000-0  49691-4 0  9990,2 55280  70.0006  10.1019 0003178 270.4711  89.6084 14.98331759 24795,6950.187,96.107,574.261,569.844,0.0
55280.0,STARLINK-5331,PAYLOAD,2023-06-28 19:34:46,14.98328886,0.0003198,70.0006,7.577,270.208,89.8713,7.2086e-06,-7e-08,0.0,0 STARLINK-5331,1 55280U 23010M   23179.81582094 -.00000007  00000-0  72086-5 0  9991,2 55280  70.0006   7.5770 0003198 270.2080  89.8713 14.98328886 24943,6950.196,96.107,574.284,569.839,0.0
55280.0,STARLINK-5331,PAYLOAD,2023-06-29 19:36:47,14.98331809,0.0003097,70.0009,5.053,268.4657,91.6147,8.578e-06,9e-08,0.0,0 STARLINK-5331,1 55280U 23010M   23180.81721815  .00000009  00000-0  85780-5 0  9995,2 55280  70.0009   5.0530 0003097 268.4657  91.6147 14.98331809 25098,6950.187,96.107,574.205,569.9,0.0
55280.0,STARLINK-5331,PAYLOAD,2023-06-30 21:14:56,14.98330814,0.0003154,70.0007,2.3592,269.0177,91.0621,1.9464e-05,1.39e-06,0.0,0 STARLINK-5331,1 55280U 23010M   23181.88537708  .00000139  00000-0  19464-4 0  9998,2 55280  70.0007   2.3592 0003154 269.0177  91.0621 14.98330814 25256,6950.19,96.107,574.247,569.863,0.0
55280.0,STARLINK-5331,PAYLOAD,2023-07-01 21:16:57,14.98329179,0.0003147,70.0007,359.8346,269.6932,90.3866,-1.8819e-05,-3.18e-06,0.0,0 STARLINK-5331,1 55280U 23010M   23182.88677916 -.00000318  00000-0 -18819-4 0  9999,2 55280  70.0007 359.8346 0003147 269.6932  90.3866 14.98329179 25402,6950.195,96.107,574.248,569.873,0.0
55280.0,STARLINK-5331,PAYLOAD,2023-07-02 21:18:58,14.98331674,0.0003213,70.0007,357.3094,269.9324,90.1467,1.9766e-05,1.43e-06,0.0,0 STARLINK-5331,1 55280U 23010M   23183.88817627  .00000143  00000-0  19766-4 0  9991,2 55280  70.0007 357.3094 0003213 269.9324  90.1467 14.98331674 25551,6950.188,96.107,574.286,569.82,0.0
55280.0,STARLINK-5331,PAYLOAD,2023-07-03 21:20:59,14.9833298,0.0003235,70.0007,354.7844,269.7911,90.2877,5.7189e-05,5.89e-06,0.0,0 STARLINK-5331,1 55280U 23010M   23184.88957313  .00000589  00000-0  57189-4 0  9994,2 55280  70.0007 354.7844 0003235 269.7911  90.2877 14.98332980 25703,6950.184,96.107,574.297,569.8,0.0
55280.0,STARLINK-5331,PAYLOAD,2023-07-04 16:34:36,14.98328785,0.0003213,70.0008,352.7645,269.7602,90.3189,-2.3541e-05,-3.74e-06,0.0,0 STARLINK-5331,1 55280U 23010M   23185.69069750 -.00000374  00000-0 -23541-4 0  9992,2 55280  70.0008 352.7645 0003213 269.7602  90.3189 14.98328785 25822,6950.197,96.107,574.295,569.829,0.0
55280.0,STARLINK-5331,PAYLOAD,2023-07-05 19:48:53,14.98330877,0.0003177,70.0009,349.9029,269.5162,90.5633,-1.7343e-05,-3e-06,0.0,0 STARLINK-5331,1 55280U 23010M   23186.82561496 -.00000300  00000-0 -17343-4 0  9994,2 55280  70.0009 349.9029 0003177 269.5162  90.5633 14.98330877 25994,6950.19,96.107,574.263,569.847,0.0
55280.0,STARLINK-5331,PAYLOAD,2023-07-07 03:51:34,14.98331607,0.0003215,70.0008,346.5363,269.2261,90.853,1.0634e-05,3.4e-07,0.0,0 STARLINK-5331,1 55280U 23010M   23188.16081264  .00000034  00000-0  10634-4 0  9991,2 55280  70.0008 346.5363 0003215 269.2261  90.8530 14.98331607 26191,6950.188,96.107,574.287,569.818,0.0
55280.0,STARLINK-5331,PAYLOAD,2023-07-08 10:18:07,14.98329447,0.0003183,70.0007,343.3388,270.6823,89.3971,-2.0926e-05,-3.43e-06,0.0,0 STARLINK-5331,1 55280U 23010M   23189.42925504 -.00000343  00000-0 -20926-4 0  9995,2 55280  70.0007 343.3388 0003183 270.6823  89.3971 14.98329447 26388,6950.195,96.107,574.272,569.847,0.0
55280.0,STARLINK-5331,PAYLOAD,2023-07-09 11:56:16,14.98326165,0.000324,70.0008,340.6445,269.05,91.0288,2.817e-06,-5.9e-07,0.0,0 STARLINK-5331,1 55280U 23010M   23190.49741599 -.00000059  00000-0  28170-5 0  9997,2 55280  70.0008 340.6445 0003240 269.0500  91.0288 14.98326165 26544,6950.205,96.107,574.322,569.818,0.0
55280.0,STARLINK-5331,PAYLOAD,2023-07-10 16:46:41,14.98333807,0.0003283,70.0009,337.6149,268.6204,91.4579,6.1483e-05,6.41e-06,0.0,0 STARLINK-5331,1 55280U 23010M   23191.69908939  .00000641  00000-0  61483-4 0  9992,2 55280  70.0009 337.6149 0003283 268.6204  91.4579 14.98333807 26723,6950.181,96.107,574.328,569.764,0.0
55280.0,STARLINK-5331,PAYLOAD,2023-07-11 20:00:58,14.98333889,0.0003158,70.0011,334.7534,267.0706,93.0092,7.3302e-05,7.82e-06,0.0,0 STARLINK-5331,1 55280U 23010M   23192.83400681  .00000782  00000-0  73302-4 0  9999,2 55280  70.0011 334.7534 0003158 267.0706  93.0092 14.98333889 26899,6950.181,96.107,574.241,569.851,0.0
55280.0,STARLINK-5331,PAYLOAD,2023-07-12 18:26:51,14.98326845,0.0002947,70.0017,332.3966,265.3231,94.7591,-4.3326e-05,-6.1e-06,0.0,0 STARLINK-5331,1 55280U 23010M   23193.76865392 -.00000610  00000-0 -43326-4 0  9991,2 55280  70.0017 332.3966 0002947 265.3231  94.7591 14.98326845 27030,6950.203,96.107,574.116,570.019,0.0
55280.0,STARLINK-5331,PAYLOAD,2023-07-13 21:41:08,14.98331695,0.0003197,70.0014,329.5354,271.5471,88.5322,-6.5611e-06,-1.71e-06,0.0,0 STARLINK-5331,1 55280U 23010M   23194.90357040 -.00000171  00000-0 -65611-5 0  9998,2 55280  70.0014 329.5354 0003197 271.5471  88.5322 14.98331695 27200,6950.188,96.107,574.275,569.831,0.0
